NORAD_CAT_ID,OBJECT_NAME,OBJECT_TYPE,EPOCH,MEAN_MOTION,ECCENTRICITY,INCLINATION,RA_OF_ASC_NODE,ARG_OF_PERICENTER,MEAN_ANOMALY,BSTAR,MEAN_MOTION_DOT,MEAN_MOTION_DDOT,TLE_LINE0,TLE_LINE1,TLE_LINE2,SEMIMAJOR_AXIS,PERIOD,APOGEE,PERIGEE,DECAYED
54161.0,STARLINK-5269,PAYLOAD,2024-05-11 08:57:20,15.08852304,0.0001667,53.2167,129.9222,92.347,267.7713,0.0002221,3.25e-05,0.0,0 STARLINK-5269,1 54161U 22141E   24132.37315032  .00003250  00000-0  22210-3 0  9993,2 54161  53.2167 129.9222 0001667  92.3470 267.7713 15.08852304 84972,6917.843,95.437,540.861,538.555,0.0
54161.0,STARLINK-5269,PAYLOAD,2024-05-11 16:54:14,15.08865796,0.0001537,53.2164,128.4359,70.7209,289.3949,0.00028753,4.294e-05,0.0,0 STARLINK-5269,1 54161U 22141E   24132.70433082  .00004294  00000-0  28753-3 0  9993,2 54161  53.2164 128.4359 0001537  70.7209 289.3949 15.08865796 85027,6917.802,95.436,540.73,538.603,0.0
54161.0,STARLINK-5269,PAYLOAD,2024-05-12 05:37:22,15.08817504,0.0001382,53.2168,126.0587,78.4031,281.7116,-0.00025116,-4.28e-05,0.0,0 STARLINK-5269,1 54161U 22141E   24133.23428501 -.00004280  00000-0 -25116-3 0  9999,2 54161  53.2168 126.0587 0001382  78.4031 281.7116 15.08817504 85109,6917.949,95.439,540.77,538.858,0.0
54161.0,STARLINK-5269,PAYLOAD,2024-05-12 08:48:08,15.08820243,0.0001487,53.2162,125.4636,77.8285,282.2874,-0.00019844,-3.443e-05,0.0,0 STARLINK-5269,1 54161U 22141E   24133.36676533 -.00003443  00000-0 -19844-3 0  9994,2 54161  53.2162 125.4636 0001487  77.8285 282.2874 15.08820243 85124,6917.941,95.439,540.834,538.777,0.0
54161.0,STARLINK-5269,PAYLOAD,2024-05-12 16:45:04,15.08821296,0.0001482,53.2161,123.9769,76.3025,283.8132,-0.00017593,-3.085e-05,0.0,0 STARLINK-5269,1 54161U 22141E   24133.69796850 -.00003085  00000-0 -17593-3 0  9996,2 54161  53.2161 123.9769 0001482  76.3025 283.8132 15.08821296 85172,6917.938,95.439,540.828,538.777,0.0
54161.0,STARLINK-5269,PAYLOAD,2024-05-13 05:28:10,15.08821469,0.000123,53.2155,121.5972,74.4528,285.6599,-3.1929e-05,-7.96e-06,0.0,0 STARLINK-5269,1 54161U 22141E   24134.22789352 -.00000796  00000-0 -31929-4 0  9991,2 54161  53.2155 121.5972 0001230  74.4528 285.6599 15.08821469 85251,6917.937,95.439,540.653,538.951,0.0
54161.0,STARLINK-5269,PAYLOAD,2024-05-13 08:38:56,15.08818077,0.0001662,53.2152,121.0026,120.8972,239.2183,7.5882e-05,9.19e-06,0.0,0 STARLINK-5269,1 54161U 22141E   24134.36037583  .00000919  00000-0  75882-4 0  9999,2 54161  53.2152 121.0026 0001662 120.8972 239.2183 15.08818077 85278,6917.947,95.439,540.962,538.663,0.0
54161.0,STARLINK-5269,PAYLOAD,2024-05-13 16:35:51,15.08836381,0.000133,53.2158,119.5161,113.2753,246.838,-0.00023877,-4.086e-05,0.0,0 STARLINK-5269,1 54161U 22141E   24134.69156937 -.00004086  00000-0 -23877-3 0  9997,2 54161  53.2158 119.5161 0001330 113.2753 246.8380 15.08836381 85328,6917.891,95.438,540.677,538.836,0.0
54161.0,STARLINK-5269,PAYLOAD,2024-05-13 22:57:25,15.08825861,0.000148,53.2154,118.3257,71.73,288.3853,0.00042834,6.533e-05,0.0,0 STARLINK-5269,1 54161U 22141E   24134.95654124  .00006533  00000-0  42834-3 0  9998,2 54161  53.2154 118.3257 0001480  71.7300 288.3853 15.08825861 85360,6917.924,95.438,540.812,538.765,0.0
54161.0,STARLINK-5269,PAYLOAD,2024-05-14 08:29:43,15.08843808,0.0001502,53.2151,116.5413,73.531,286.5847,0.00061804,9.563e-05,0.0,0 STARLINK-5269,1 54161U 22141E   24135.35397908  .00009563  00000-0  61804-3 0  9991,2 54161  53.2151 116.5413 0001502  73.5310 286.5847 15.08843808 85428,6917.869,95.437,540.773,538.695,0.0
54161.0,STARLINK-5269,PAYLOAD,2024-05-15 05:09:43,15.08874208,0.0001516,53.2151,112.6751,75.0479,285.0681,0.00084304,0.00013167,0.0,0 STARLINK-5269,1 54161U 22141E   24136.21508563  .00013167  00000-0  84304-3 0  9993,2 54161  53.2151 112.6751 0001516  75.0479 285.0681 15.08874208 85550,6917.776,95.435,540.69,538.592,0.0
54161.0,STARLINK-5269,PAYLOAD,2024-05-15 08:20:29,15.088842,0.0001535,53.2151,112.0804,75.2117,284.9045,0.0011628,0.00018289,0.0,0 STARLINK-5269,1 54161U 22141E   24136.34756188  .00018289  00000-0  11628-2 0  9993,2 54161  53.2151 112.0804 0001535  75.2117 284.9045 15.08884200 85572,6917.745,95.435,540.672,538.548,0.0
54161.0,STARLINK-5269,PAYLOAD,2024-05-15 22:38:56,15.08866757,0.0001215,53.2159,109.4043,82.6195,277.4936,0.00031028,4.657e-05,0.0,0 STARLINK-5269,1 54161U 22141E   24136.94371465  .00004657  00000-0  31028-3 0  9991,2 54161  53.2159 109.4043 0001215  82.6195 277.4936 15.08866757 85661,6917.799,95.436,540.504,538.823,0.0
54161.0,STARLINK-5269,PAYLOAD,2024-05-16 05:00:29,15.08854505,0.0001489,53.2157,108.215,85.0709,275.0453,-4.4356e-05,-9.94e-06,0.0,0 STARLINK-5269,1 54161U 22141E   24137.20867370 -.00000994  00000-0 -44356-4 0  9997,2 54161  53.2157 108.2150 0001489  85.0709 275.0453 15.08854505 85707,6917.836,95.437,540.731,538.671,0.0
54161.0,STARLINK-5269,PAYLOAD,2024-05-16 14:32:47,15.08865561,0.0001491,53.2158,106.4305,88.9911,271.1252,0.00090722,0.0001419,0.0,0 STARLINK-5269,1 54161U 22141E   24137.60611015  .00014190  00000-0  90722-3 0  9992,2 54161  53.2158 106.4305 0001491  88.9911 271.1252 15.08865561 85764,6917.802,95.436,540.699,538.636,0.0
54161.0,STARLINK-5269,PAYLOAD,2024-05-16 22:29:43,15.08851033,0.0002304,53.2165,104.9469,99.203,260.9223,0.00064288,9.961e-05,0.0,0 STARLINK-5269,1 54161U 22141E   24137.93731342  .00009961  00000-0  64288-3 0  9992,2 54161  53.2165 104.9469 0002304  99.2030 260.9223 15.08851033 85816,6917.847,95.437,541.306,538.118,0.0
54161.0,STARLINK-5269,PAYLOAD,2024-05-17 04:51:16,15.08845267,0.0001591,53.2179,103.7599,107.9065,252.21,4.0721e-05,3.6e-06,0.0,0 STARLINK-5269,1 54161U 22141E   24138.20227313  .00000360  00000-0  40721-4 0  9992,2 54161  53.2179 103.7599 0001591 107.9065 252.2100 15.08845267 85858,6917.864,95.437,540.83,538.629,0.0
54161.0,STARLINK-5269,PAYLOAD,2024-05-17 14:23:34,15.08859763,0.0001448,53.2173,101.9721,95.098,265.0178,0.0007045,0.00010948,0.0,0 STARLINK-5269,1 54161U 22141E   24138.59970823  .00010948  00000-0  70450-3 0  9999,2 54161  53.2173 101.9721 0001448  95.0980 265.0178 15.08859763 85913,6917.82,95.436,540.687,538.683,0.0
54161.0,STARLINK-5269,PAYLOAD,2024-05-17 22:20:31,15.08827487,0.0001446,53.2158,100.4837,88.8099,271.3058,-0.0002998,-5.054e-05,0.0,0 STARLINK-5269,1 54161U 22141E   24138.93091469 -.00005054  00000-0 -29980-3 0  9993,2 54161  53.2158 100.4837 0001446  88.8099 271.3058 15.08827487 85967,6917.919,95.438,540.784,538.783,0.0
54161.0,STARLINK-5269,PAYLOAD,2024-05-18 04:42:03,15.08844854,0.0001307,53.2154,99.2954,99.3437,260.7703,0.00072129,0.00011212,0.0,0 STARLINK-5269,1 54161U 22141E   24139.19587355  .00011212  00000-0  72129-3 0  9990,2 54161  53.2154  99.2954 0001307  99.3437 260.7703 15.08844854 86009,6917.866,95.437,540.635,538.826,0.0
54161.0,STARLINK-5269,PAYLOAD,2024-05-18 14:14:22,15.08863885,0.0001167,53.2147,97.5084,60.8582,299.2527,0.0016439,0.00025989,0.0,0 STARLINK-5269,1 54161U 22141E   24139.59331066  .00025989  00000-0  16439-2 0  9997,2 54161  53.2147  97.5084 0001167  60.8582 299.2527 15.08863885 86066,6917.807,95.436,540.48,538.865,0.0
54161.0,STARLINK-5269,PAYLOAD,2024-05-18 20:35:55,15.08822113,0.0001224,53.2149,96.32,78.5107,281.6022,-0.00014394,-2.577e-05,0.0,0 STARLINK-5269,1 54161U 22141E   24139.85827897 -.00002577  00000-0 -14394-3 0  9997,2 54161  53.2149  96.3200 0001224  78.5107 281.6022 15.08822113 86107,6917.935,95.439,540.647,538.953,0.0
54161.0,STARLINK-5269,PAYLOAD,2024-05-19 04:32:51,15.08817715,0.0001251,53.2153,94.8338,76.6442,283.4689,0.0012929,0.00020336,0.0,0 STARLINK-5269,1 54161U 22141E   24140.18948406  .00020336  00000-0  12929-2 0  9997,2 54161  53.2153  94.8338 0001251  76.6442 283.4689 15.08817715 86154,6917.949,95.439,540.679,538.948,0.0
54161.0,STARLINK-5269,PAYLOAD,2024-05-19 20:26:43,15.08842973,0.0001314,53.215,91.8601,79.9976,280.1165,0.0013685,0.00021561,0.0,0 STARLINK-5269,1 54161U 22141E   24140.85188926  .00021561  00000-0  13685-2 0  9995,2 54161  53.2150  91.8601 0001314  79.9976 280.1165 15.08842973 86257,6917.871,95.437,540.645,538.827,0.0
54161.0,STARLINK-5269,PAYLOAD,2024-05-20 04:23:38,15.08852965,0.0001383,53.2153,90.3741,78.4262,281.6886,0.0012435,0.00019565,0.0,0 STARLINK-5269,1 54161U 22141E   24141.18308815  .00019565  00000-0  12435-2 0  9996,2 54161  53.2153  90.3741 0001383  78.4262 281.6886 15.08852965 86301,6917.841,95.437,540.662,538.749,0.0
54161.0,STARLINK-5269,PAYLOAD,2024-05-20 20:17:30,15.08851664,0.0001341,53.2161,87.4,95.7448,264.3697,0.00099187,0.00015538,0.0,0 STARLINK-5269,1 54161U 22141E   24141.84548811  .00015538  00000-0  99187-3 0  9997,2 54161  53.2161  87.4000 0001341  95.7448 264.3697 15.08851664 86401,6917.845,95.437,540.637,538.782,0.0
54161.0,STARLINK-5269,PAYLOAD,2024-05-21 02:39:02,15.0884533,0.0001215,53.2156,86.2084,92.0893,268.0239,0.00044879,6.863e-05,0.0,0 STARLINK-5269,1 54161U 22141E   24142.11044890  .00006863  00000-0  44879-3 0  9995,2 54161  53.2156  86.2084 0001215  92.0893 268.0239 15.08845330 86448,6917.864,95.437,540.57,538.889,0.0
54161.0,STARLINK-5269,PAYLOAD,2024-05-21 05:49:49,15.08841112,0.0001362,53.2161,85.6133,100.9184,259.1961,0.00025794,3.82e-05,0.0,0 STARLINK-5269,1 54161U 22141E   24142.24292912  .00003820  00000-0  25794-3 0  9994,2 54161  53.2161  85.6133 0001362 100.9184 259.1961 15.08841112 86466,6917.877,95.437,540.684,538.8,0.0
54161.0,STARLINK-5269,PAYLOAD,2024-05-22 02:29:49,15.08847033,0.0001404,53.2169,81.7477,95.8789,264.2363,0.0002158,3.149e-05,0.0,0 STARLINK-5269,1 54161U 22141E   24143.10404792  .00003149  00000-0  21580-3 0  9994,2 54161  53.2169  81.7477 0001404  95.8789 264.2363 15.08847033 86597,6917.859,95.437,540.695,538.753,0.0
54161.0,STARLINK-5269,PAYLOAD,2024-05-23 00:45:13,15.08841442,0.0001532,53.2169,77.5847,111.2087,248.9069,0.00012887,1.764e-05,0.0,0 STARLINK-5269,1 54161U 22141E   24144.03140883  .00001764  00000-0  12887-3 0  9996,2 54161  53.2169  77.5847 0001532 111.2087 248.9069 15.08841442 86733,6917.876,95.437,540.801,538.681,0.0
